[{"OBJECT_NAME":"STARLINK-34614","OBJECT_ID":"2025-161R","EPOCH":"2026-03-09T22:31:21.361152","MEAN_MOTION":15.30204259,"ECCENTRICITY":8.021e-5,"INCLINATION":53.1605,"RA_OF_ASC_NODE":293.3511,"ARG_OF_PERICENTER":104.9906,"MEAN_ANOMALY":255.1183,"EPHEMERIS_TYPE":0,"CLASSIFICATION_TYPE":"U","NORAD_CAT_ID":65030,"ELEMENT_SET_NO":999,"REV_AT_EPOCH":3536,"BSTAR":0.00074378752,"MEAN_MOTION_DOT":0.00021737,"MEAN_MOTION_DDOT":0},{"OBJECT_NAME":"KUIPER-00213","OBJECT_ID":"2026-030P","EPOCH":"2026-03-09T22:00:01.999584","MEAN_MOTION":15.32626943,"ECCENTRICITY":0.00152813,"INCLINATION":51.8816,"RA_OF_ASC_NODE":218.5142,"ARG_OF_PERICENTER":64.2462,"MEAN_ANOMALY":206.8369,"EPHEMERIS_TYPE":0,"CLASSIFICATION_TYPE":"U","NORAD_CAT_ID":67777,"ELEMENT_SET_NO":999,"REV_AT_EPOCH":502,"BSTAR":0.0016072376,"MEAN_MOTION_DOT":0.00051551,"MEAN_MOTION_DDOT":0}]
